OBJECT_NAME,OBJECT_ID,EPOCH,MEAN_MOTION,ECCENTRICITY,INCLINATION,RA_OF_ASC_NODE,ARG_OF_PERICENTER,MEAN_ANOMALY,EPHEMERIS_TYPE,CLASSIFICATION_TYPE,NORAD_CAT_ID,ELEMENT_SET_NO,REV_AT_EPOCH,BSTAR,MEAN_MOTION_DOT,MEAN_MOTION_DDOT
STARLINK-37656,2026-143A,2026-07-17T02:09:04.623840,15.49208037,.00009354,97.2849,241.9910,105.0816,255.0539,0,U,69649,999,517,.46470034E-3,.25281E-3,0
STARLINK-37646,2026-143B,2026-07-17T09:41:10.844736,15.48770998,.00034944,97.2850,242.4838,139.4005,220.7507,0,U,69650,999,523,-.30304748E-2,-.159329E-2,0
STARLINK-37749,2026-143C,2026-07-17T02:05:49.833312,15.49215976,.00008244,97.2842,242.1477,138.7142,221.4172,0,U,69651,999,518,.2928751E-3,.15885E-3,0
STARLINK-37819,2026-143D,2026-07-17T02:22:30.042048,15.49219289,.00016833,97.2815,242.1313,91.4316,268.7128,0,U,69652,999,518,.68551182E-3,.3741E-3,0
STARLINK-37729,2026-143E,2026-07-17T14:00:01.999872,15.76594683,.00013822,97.2843,243.1307,102.7332,192.6729,0,U,69653,999,534,-.17459641E-1,-.2388521E-1,0
STARLINK-37838,2026-143F,2026-07-17T01:39:51.954048,15.49210925,.00008795,97.2838,242.1737,65.1728,294.9614,0,U,69654,999,518,.40326643E-3,.2192E-3,0
STARLINK-37884,2026-143G,2026-07-17T15:00:16.329600,15.45792466,.0001501,97.2843,242.6416,70.2332,289.9079,0,U,69655,999,526,-.27625316E-1,-.1215353E-1,0
STARLINK-37876,2026-143H,2026-07-17T14:00:01.999872,15.42673410,.00013002,97.2857,242.6967,84.3634,243.3876,0,U,69656,999,524,-.75374422E-1,-.2908808E-1,0
STARLINK-37784,2026-143J,2026-07-17T02:23:46.619232,15.49231973,.00014075,97.2853,242.1322,101.5269,258.6141,0,U,69657,999,511,.43825799E-3,.23853E-3,0
STARLINK-37851,2026-143K,2026-07-17T01:43:35.226336,15.49205906,.00006228,97.2843,242.1702,94.0044,266.1279,0,U,69658,999,511,.37230415E-3,.20222E-3,0
STARLINK-37229,2026-143L,2026-07-17T14:37:39.354528,15.45394419,.00021304,97.2842,242.6623,89.9089,270.2405,0,U,69659,999,520,-.29833969E-1,-.1287485E-1,0
STARLINK-37556,2026-143M,2026-07-17T14:00:01.999872,15.36957755,.00010883,97.2844,242.6241,91.5810,93.3038,0,U,69660,999,528,.15888928E-2,.57712E-3,0
STARLINK-37867,2026-143N,2026-07-17T14:00:01.999872,15.37341858,.00015942,97.2992,242.6641,102.4785,176.5866,0,U,69661,999,524,-.73103978E-1,-.2376502E-1,0
STARLINK-37852,2026-143P,2026-07-17T02:29:41.962560,15.49206865,.00012511,97.2850,242.1269,85.5773,274.5621,0,U,69662,999,511,.44995999E-3,.24473E-3,0
STARLINK-37554,2026-143Q,2026-07-17T14:00:01.999872,15.38091765,.00018903,97.2846,242.6525,70.4188,170.0241,0,U,69663,999,528,-.48011885E-1,-.1611614E-1,0
STARLINK-37830,2026-143R,2026-07-17T14:00:01.999872,15.43623014,.00026991,97.2849,242.6308,118.4508,62.3585,0,U,69664,999,523,-.73818976E-1,-.2939306E-1,0
STARLINK-37837,2026-143S,2026-07-17T14:00:01.999872,15.36957654,.00007702,97.2837,242.6163,93.4756,75.4771,0,U,69665,999,524,.13498726E-2,.48962E-3,0
STARLINK-37943,2026-143T,2026-07-17T10:03:39.760416,15.49202266,.00015339,97.2841,242.4626,92.1336,268.0091,0,U,69666,999,516,.38882188E-3,.21123E-3,0
STARLINK-37941,2026-143U,2026-07-17T02:00:24.670368,15.49208253,.00009004,97.2839,242.1529,102.7732,257.3620,0,U,69667,999,511,.5101651E-3,.27772E-3,0
STARLINK-37930,2026-143V,2026-07-17T01:59:38.823936,15.49238300,.00011666,97.2839,242.1534,117.7877,242.3492,0,U,69668,999,511,.53609935E-3,.29225E-3,0
STARLINK-37945,2026-143W,2026-07-17T01:41:03.861312,15.49200166,.00008062,97.2808,242.1687,71.0791,289.0547,0,U,69669,999,511,.38917037E-3,.2114E-3,0
STARLINK-37948,2026-143X,2026-07-17T02:50:02.794560,15.49208573,.00007199,97.2838,242.1074,351.2853,8.8386,0,U,69670,999,511,.20259412E-3,.10951E-3,0
STARLINK-37949,2026-143Y,2026-07-17T13:05:59.654112,15.49223378,.00007256,97.2847,242.5951,333.0142,27.1071,0,U,69671,999,518,.41443109E-3,.2254E-3,0
STARLINK-37946,2026-143Z,2026-07-17T09:39:54.722016,15.49200377,.00009433,97.2849,242.4851,89.5484,270.5875,0,U,69672,999,516,.25706813E-3,.13921E-3,0
TJS-26A,2026-144A,2026-07-12T07:10:37.543296,1.00274367,.0004208,6.9538,323.2302,347.4913,194.6526,0,U,69674,999,19,0,-.341E-5,0
STARLINK-38005,2026-145A,2026-07-17T12:39:12.897504,15.75257943,.00017626,97.2832,45.4758,108.8579,251.2877,0,U,69677,999,354,.11473889E-2,.17508E-2,0
STARLINK-38009,2026-145B,2026-07-17T12:36:40.558752,15.75256704,.0001598,97.2845,45.4791,97.5498,262.5949,0,U,69678,999,354,.1230222E-2,.188004E-2,0
STARLINK-37998,2026-145C,2026-07-17T12:33:07.060896,15.75265280,.00013963,97.2835,45.4822,99.8381,260.3042,0,U,69679,999,354,.13493296E-2,.206751E-2,0
STARLINK-37994,2026-145D,2026-07-17T01:54:47.382048,15.75175282,.0001205,97.2836,45.0135,106.6843,253.4555,0,U,69680,999,347,.10126945E-2,.153568E-2,0
